{
"type": "FeatureCollection",
"name": "PLANES_PARCIALES",
"features": [
{ "type": "Feature", "properties": { "OBJECTID": 1, "SHAPE_Leng": 909.83161747700001, "SHAPE_Area": 23989.340375399999, "NOMBRE_PP": "PLAN PARCIAL ARPA DE AGUAS" }, "geometry": { "type": "Polygon", "coordinates": [ [ [ -73.634287, 4.1590104 ], [ -73.6342975, 4.1589994 ], [ -73.6343326, 4.1589431 ], [ -73.6343439, 4.1589249 ], [ -73.6343543, 4.1589313 ], [ -73.6344041, 4.158855 ], [ -73.6343997, 4.1588519 ], [ -73.634433, 4.1587956 ], [ -73.6343014, 4.1586966 ], [ -73.634242, 4.1586556 ], [ -73.6342021, 4.1586264 ], [ -73.6341484, 4.1585807 ], [ -73.6340969, 4.1585374 ], [ -73.6340481, 4.1584969 ], [ -73.6339956, 4.1584517 ], [ -73.6337442, 4.158239 ], [ -73.6336306, 4.1581431 ], [ -73.6335877, 4.1581062 ], [ -73.6334278, 4.1579707 ], [ -73.6332346, 4.1578074 ], [ -73.6331261, 4.1577127 ], [ -73.6327269, 4.1573738 ], [ -73.6326215, 4.15729 ], [ -73.632197, 4.1569314 ], [ -73.6320841, 4.1568378 ], [ -73.6316892, 4.1564938 ], [ -73.6316129, 4.1565839 ], [ -73.6315497, 4.1566585 ], [ -73.6314585, 4.1568655 ], [ -73.6313972, 4.1569237 ], [ -73.6312872, 4.1570415 ], [ -73.6313296, 4.1570835 ], [ -73.6313438, 4.1571114 ], [ -73.6313475, 4.1571107 ], [ -73.6314015, 4.1571608 ], [ -73.6313843, 4.1571818 ], [ -73.6314537, 4.157263 ], [ -73.6314628, 4.1572541 ], [ -73.6315474, 4.1573221 ], [ -73.6316269, 4.1573815 ], [ -73.6317645, 4.1574841 ], [ -73.6321963, 4.1577629 ], [ -73.6322168, 4.1577752 ], [ -73.6323035, 4.1578777 ], [ -73.63255, 4.1580461 ], [ -73.6327262, 4.158167 ], [ -73.6327313, 4.1581694 ], [ -73.6328787, 4.1582111 ], [ -73.6329635, 4.158283 ], [ -73.6331235, 4.158369 ], [ -73.6332132, 4.1584181 ], [ -73.6333501, 4.1584949 ], [ -73.6334858, 4.1585689 ], [ -73.6341555, 4.158941 ], [ -73.6342791, 4.1590102 ], [ -73.634287, 4.1590104 ] ] ] } },
{ "type": "Feature", "properties": { "OBJECTID": 2, "SHAPE_Leng": 966.64868931000001, "SHAPE_Area": 47475.3574161, "NOMBRE_PP": "LOTE REMANENTE 1" }, "geometry": { "type": "Polygon", "coordinates": [ [ [ -73.5757651, 4.1425205 ], [ -73.5760826, 4.1416781 ], [ -73.5767557, 4.1398919 ], [ -73.5765541, 4.1399064 ], [ -73.5763806, 4.1399645 ], [ -73.5762211, 4.1400046 ], [ -73.5761367, 4.1400526 ], [ -73.5756593, 4.1402125 ], [ -73.5756493, 4.1402192 ], [ -73.5744336, 4.1410407 ], [ -73.5740232, 4.141318 ], [ -73.5739217, 4.1413359 ], [ -73.5739173, 4.1414789 ], [ -73.5739074, 4.1418002 ], [ -73.5739759, 4.1418193 ], [ -73.5742523, 4.1419695 ], [ -73.5743694, 4.1421385 ], [ -73.574409, 4.1422145 ], [ -73.5744853, 4.1423119 ], [ -73.5747021, 4.142233 ], [ -73.5750448, 4.1421593 ], [ -73.5751699, 4.1422343 ], [ -73.575221, 4.142265 ], [ -73.5755527, 4.1425138 ], [ -73.5756134, 4.142539 ], [ -73.5756602, 4.1425422 ], [ -73.5757651, 4.1425205 ] ] ] } },
{ "type": "Feature", "properties": { "OBJECTID": 3, "SHAPE_Leng": 139.12946437299999, "SHAPE_Area": 996.09775599, "NOMBRE_PP": "LOTE REMANENTE 2" }, "geometry": { "type": "Polygon", "coordinates": [ [ [ -73.5736572, 4.1417786 ], [ -73.5736695, 4.1413804 ], [ -73.573569, 4.1413982 ], [ -73.5735156, 4.1413451 ], [ -73.5734094, 4.141362 ], [ -73.5734312, 4.1414432 ], [ -73.5734437, 4.1414862 ], [ -73.5734741, 4.1416041 ], [ -73.5735173, 4.1417813 ], [ -73.5735762, 4.1417847 ], [ -73.5736572, 4.1417786 ] ] ] } },
{ "type": "Feature", "properties": { "OBJECTID": 4, "SHAPE_Leng": 1204.75873662, "SHAPE_Area": 64883.475502499998, "NOMBRE_PP": "LOTE REMANENTE 3" }, "geometry": { "type": "Polygon", "coordinates": [ [ [ -73.5736891, 4.1407395 ], [ -73.573703, 4.1402867 ], [ -73.5737344, 4.1392652 ], [ -73.5737379, 4.1391296 ], [ -73.5738043, 4.13699 ], [ -73.5738186, 4.1365237 ], [ -73.5737677, 4.1364531 ], [ -73.5736118, 4.1362788 ], [ -73.5730518, 4.1361222 ], [ -73.5730317, 4.1361561 ], [ -73.5729994, 4.1362239 ], [ -73.5729473, 4.1363695 ], [ -73.5729014, 4.1365395 ], [ -73.5728571, 4.1367273 ], [ -73.5728232, 4.1368871 ], [ -73.5728026, 4.1369789 ], [ -73.5727788, 4.1370782 ], [ -73.5727285, 4.1373126 ], [ -73.5726429, 4.1376566 ], [ -73.5726103, 4.1378106 ], [ -73.5725809, 4.1380061 ], [ -73.5725194, 4.1383998 ], [ -73.5724721, 4.1386542 ], [ -73.5724091, 4.138981 ], [ -73.5723875, 4.1390878 ], [ -73.5723707, 4.1391709 ], [ -73.5723609, 4.1392227 ], [ -73.5723308, 4.1393813 ], [ -73.5723054, 4.1395277 ], [ -73.5722834, 4.1396338 ], [ -73.5722589, 4.1397668 ], [ -73.5722275, 4.1399254 ], [ -73.5722062, 4.140039 ], [ -73.5723134, 4.1401241 ], [ -73.5725337, 4.1403028 ], [ -73.5726096, 4.1404015 ], [ -73.5727799, 4.1405227 ], [ -73.5729201, 4.1405778 ], [ -73.5730069, 4.1406598 ], [ -73.573318, 4.1407926 ], [ -73.5736246, 4.1407098 ], [ -73.5736891, 4.1407395 ] ] ] } },
{ "type": "Feature", "properties": { "OBJECTID": 5, "SHAPE_Leng": 1052.4695715400001, "SHAPE_Area": 46578.292520700001, "NOMBRE_PP": "LOTE REMANENTE 4" }, "geometry": { "type": "Polygon", "coordinates": [ [ [ -73.5774169, 4.1381091 ], [ -73.5776862, 4.1373787 ], [ -73.5777357, 4.1372499 ], [ -73.5759693, 4.1369199 ], [ -73.5754965, 4.136806 ], [ -73.5753615, 4.1367689 ], [ -73.5741457, 4.1364291 ], [ -73.5740691, 4.1365155 ], [ -73.5740276, 4.1378752 ], [ -73.5742082, 4.1378753 ], [ -73.5753608, 4.137876 ], [ -73.5754958, 4.1378761 ], [ -73.5761724, 4.1378766 ], [ -73.5774169, 4.1381091 ] ] ] } },
{ "type": "Feature", "properties": { "OBJECTID": 6, "SHAPE_Leng": 934.60916521700005, "SHAPE_Area": 42931.444893400003, "NOMBRE_PP": "LOTE REMANENTE 5" }, "geometry": { "type": "Polygon", "coordinates": [ [ [ -73.5770213, 4.1391471 ], [ -73.5773971, 4.1382315 ], [ -73.5758531, 4.1379912 ], [ -73.574066, 4.138014 ], [ -73.5740557, 4.1391338 ], [ -73.5753282, 4.1391633 ], [ -73.5766922, 4.1391533 ], [ -73.5770213, 4.1391471 ] ] ] } },
{ "type": "Feature", "properties": { "OBJECTID": 7, "SHAPE_Leng": 1279.3161107200001, "SHAPE_Area": 85628.884216899998, "NOMBRE_PP": "PP CAMPO ALEGRE" }, "geometry": { "type": "Polygon", "coordinates": [ [ [ -73.6484239, 4.1163152 ], [ -73.6480973, 4.1165948 ], [ -73.6481751, 4.1166896 ], [ -73.6468288, 4.117787 ], [ -73.6488263, 4.1201706 ], [ -73.6495548, 4.1206481 ], [ -73.650451, 4.1198662 ], [ -73.6484239, 4.1163152 ] ] ] } },
{ "type": "Feature", "properties": { "OBJECTID": 8, "SHAPE_Leng": 362.02850878300001, "SHAPE_Area": 6315.0297794400003, "NOMBRE_PP": "PP CAMPO ALEGRE" }, "geometry": { "type": "Polygon", "coordinates": [ [ [ -73.6494977, 4.1206982 ], [ -73.6486705, 4.1214247 ], [ -73.6486745, 4.1214888 ], [ -73.648697, 4.1216118 ], [ -73.6487454, 4.1217003 ], [ -73.648808, 4.1217462 ], [ -73.6488513, 4.1217905 ], [ -73.6489374, 4.1217129 ], [ -73.6490236, 4.1216353 ], [ -73.6492614, 4.12158 ], [ -73.6496053, 4.1212702 ], [ -73.6495146, 4.1211687 ], [ -73.6496974, 4.1210041 ], [ -73.6495962, 4.1208909 ], [ -73.6496365, 4.1208546 ], [ -73.6494977, 4.1206982 ] ] ] } },
{ "type": "Feature", "properties": { "OBJECTID": 9, "SHAPE_Leng": 960.78390207799998, "SHAPE_Area": 34762.173135600002, "NOMBRE_PP": "PP CEMAL 1 Y 2" }, "geometry": { "type": "Polygon", "coordinates": [ [ [ -73.6103055, 4.1246631 ], [ -73.607659, 4.1222101 ], [ -73.6074027, 4.1227019 ], [ -73.6094924, 4.1253994 ], [ -73.6103055, 4.1246631 ] ] ] } },
{ "type": "Feature", "properties": { "OBJECTID": 10, "SHAPE_Leng": 1965.0427358100001, "SHAPE_Area": 135143.75659599999, "NOMBRE_PP": "PP CHARRASCAL" }, "geometry": { "type": "Polygon", "coordinates": [ [ [ -73.6558806, 4.0819152 ], [ -73.6560797, 4.0828104 ], [ -73.6562329, 4.0836636 ], [ -73.6562324, 4.0837624 ], [ -73.6560607, 4.0850748 ], [ -73.6592091, 4.0843749 ], [ -73.6585563, 4.0828318 ], [ -73.6585186, 4.0826217 ], [ -73.6585792, 4.082624 ], [ -73.6614022, 4.0827308 ], [ -73.6613375, 4.0817022 ], [ -73.6584541, 4.081596 ], [ -73.6584191, 4.0815947 ], [ -73.6580808, 4.0815812 ], [ -73.6558806, 4.0819152 ] ] ] } },
{ "type": "Feature", "properties": { "OBJECTID": 11, "SHAPE_Leng": 709.09897759700004, "SHAPE_Area": 29292.173089799999, "NOMBRE_PP": "PP CHARRASCAL" }, "geometry": { "type": "Polygon", "coordinates": [ [ [ -73.6601247, 4.0864272 ], [ -73.6612116, 4.0859541 ], [ -73.6607551, 4.0848962 ], [ -73.6604533, 4.0841969 ], [ -73.6592851, 4.0845113 ], [ -73.6601247, 4.0864272 ] ] ] } },
{ "type": "Feature", "properties": { "OBJECTID": 12, "SHAPE_Leng": 2215.05093519, "SHAPE_Area": 250211.958334, "NOMBRE_PP": "PP COBOS" }, "geometry": { "type": "Polygon", "coordinates": [ [ [ -73.5742768, 4.148113 ], [ -73.5744834, 4.1481476 ], [ -73.5746249, 4.1481484 ], [ -73.5750059, 4.1481666 ], [ -73.575141, 4.1481624 ], [ -73.5753362, 4.1481216 ], [ -73.5754578, 4.1481088 ], [ -73.5756358, 4.1480924 ], [ -73.575778, 4.1481011 ], [ -73.5760373, 4.1480886 ], [ -73.5761506, 4.147942 ], [ -73.5762123, 4.1475932 ], [ -73.5762303, 4.1473893 ], [ -73.5762548, 4.1471094 ], [ -73.5762598, 4.1470247 ], [ -73.576273, 4.1469104 ], [ -73.576299, 4.1467305 ], [ -73.5763266, 4.1465991 ], [ -73.5763539, 4.1463752 ], [ -73.5763611, 4.1462108 ], [ -73.5763799, 4.1459481 ], [ -73.5763971, 4.145827 ], [ -73.57641, 4.1457357 ], [ -73.5764106, 4.1456514 ], [ -73.5764246, 4.1455974 ], [ -73.576458, 4.1455388 ], [ -73.5766534, 4.1455101 ], [ -73.576861, 4.1454507 ], [ -73.5772844, 4.1455823 ], [ -73.5773208, 4.1454277 ], [ -73.5773322, 4.1451962 ], [ -73.5773704, 4.1449773 ], [ -73.5773862, 4.1446076 ], [ -73.5773863, 4.1443277 ], [ -73.5773544, 4.1439616 ], [ -73.5773165, 4.1436697 ], [ -73.5773071, 4.1434627 ], [ -73.577281, 4.1432342 ], [ -73.5772693, 4.1429375 ], [ -73.5773025, 4.1424608 ], [ -73.5771118, 4.1424824 ], [ -73.5769727, 4.1425182 ], [ -73.5767951, 4.1425511 ], [ -73.5766754, 4.1425592 ], [ -73.576553, 4.1426094 ], [ -73.5764178, 4.1427669 ], [ -73.5762999, 4.1428473 ], [ -73.5761359, 4.1429067 ], [ -73.5760031, 4.142885 ], [ -73.5758335, 4.1428292 ], [ -73.5756265, 4.1428653 ], [ -73.5755191, 4.1428406 ], [ -73.5753833, 4.1427803 ], [ -73.5752279, 4.14264 ], [ -73.5751787, 4.1425971 ], [ -73.5751604, 4.1425854 ], [ -73.5749892, 4.1424758 ], [ -73.5747847, 4.1425184 ], [ -73.5746213, 4.1425816 ], [ -73.57444, 4.1426513 ], [ -73.5743685, 4.142677 ], [ -73.5742434, 4.1426794 ], [ -73.5741907, 4.142665 ], [ -73.5741789, 4.1426117 ], [ -73.574232, 4.142473 ], [ -73.5741737, 4.1423844 ], [ -73.5741112, 4.1422877 ], [ -73.5740476, 4.1421952 ], [ -73.5738606, 4.142091 ], [ -73.5737596, 4.1420612 ], [ -73.5735823, 4.1420745 ], [ -73.573492, 4.1420942 ], [ -73.5734664, 4.1421767 ], [ -73.5734368, 4.1422504 ], [ -73.5734005, 4.1423518 ], [ -73.5733518, 4.142435 ], [ -73.5732249, 4.1426484 ], [ -73.5731153, 4.1428411 ], [ -73.5730856, 4.1428933 ], [ -73.5730618, 4.1429354 ], [ -73.5730303, 4.1430023 ], [ -73.5730055, 4.1430373 ], [ -73.5729489, 4.1431175 ], [ -73.5729324, 4.1431408 ], [ -73.5729412, 4.1431486 ], [ -73.5729986, 4.1431994 ], [ -73.5730807, 4.14332 ], [ -73.5731771, 4.1434148 ], [ -73.57328, 4.1435362 ], [ -73.5733404, 4.1435991 ], [ -73.5733407, 4.1435994 ], [ -73.5733393, 4.1436014 ], [ -73.5733014, 4.1436561 ], [ -73.5732226, 4.1437953 ], [ -73.5731926, 4.1438771 ], [ -73.5731331, 4.1440134 ], [ -73.5730709, 4.1441462 ], [ -73.5730179, 4.1442531 ], [ -73.5729542, 4.1443995 ], [ -73.5729155, 4.1444834 ], [ -73.5728819, 4.1446011 ], [ -73.5728868, 4.1446435 ], [ -73.5729568, 4.1447813 ], [ -73.5729889, 4.1448653 ], [ -73.5730089, 4.1449307 ], [ -73.5730124, 4.1449651 ], [ -73.572994, 4.1451044 ], [ -73.5729938, 4.1451065 ], [ -73.5729729, 4.1452529 ], [ -73.5729686, 4.1453628 ], [ -73.5729663, 4.1454598 ], [ -73.5729649, 4.1455164 ], [ -73.5729749, 4.1456291 ], [ -73.5729769, 4.1457518 ], [ -73.5729718, 4.1458659 ], [ -73.5729775, 4.1460131 ], [ -73.5730038, 4.1461287 ], [ -73.5730645, 4.1463656 ], [ -73.5730859, 4.146433 ], [ -73.5731108, 4.1465027 ], [ -73.5732194, 4.146726 ], [ -73.5732943, 4.1469119 ], [ -73.5733521, 4.1470483 ], [ -73.5733964, 4.147146 ], [ -73.5734563, 4.1472803 ], [ -73.5735227, 4.1474188 ], [ -73.5735756, 4.1475323 ], [ -73.5736176, 4.1476228 ], [ -73.5736677, 4.1477304 ], [ -73.5737433, 4.1478855 ], [ -73.5737676, 4.1479466 ], [ -73.5737482, 4.1480284 ], [ -73.5737783, 4.1480227 ], [ -73.5739151, 4.1479972 ], [ -73.574101, 4.1480555 ], [ -73.5742768, 4.148113 ] ] ] } },
{ "type": "Feature", "properties": { "OBJECTID": 13, "SHAPE_Leng": 2176.8933631199998, "SHAPE_Area": 224044.80609, "NOMBRE_PP": "PP EL FORESTAL" }, "geometry": { "type": "MultiPolygon", "coordinates": [ [ [ [ -73.5965943, 4.1495129 ], [ -73.5973472, 4.1495087 ], [ -73.5976095, 4.1495082 ], [ -73.5975983, 4.1494968 ], [ -73.5975384, 4.1494357 ], [ -73.597487, 4.1493895 ], [ -73.597443, 4.14935 ], [ -73.59735, 4.1492524 ], [ -73.5972669, 4.1491718 ], [ -73.5971763, 4.1490835 ], [ -73.5971556, 4.1490358 ], [ -73.5971548, 4.1490254 ], [ -73.5972529, 4.1488112 ], [ -73.5973122, 4.1486789 ], [ -73.5973861, 4.1485277 ], [ -73.5974551, 4.1483694 ], [ -73.5975158, 4.1482329 ], [ -73.5975577, 4.1481352 ], [ -73.5976131, 4.1480063 ], [ -73.5977015, 4.1478097 ], [ -73.5977981, 4.1476208 ], [ -73.597896, 4.1474262 ], [ -73.5980674, 4.1470518 ], [ -73.5981551, 4.1468405 ], [ -73.5981551, 4.146821 ], [ -73.5980302, 4.1467932 ], [ -73.5977954, 4.1467556 ], [ -73.5976192, 4.14673 ], [ -73.5974327, 4.1467011 ], [ -73.5972908, 4.1466814 ], [ -73.5971317, 4.1466581 ], [ -73.5969214, 4.1466298 ], [ -73.5967327, 4.1466099 ], [ -73.5966163, 4.1465836 ], [ -73.596395, 4.1465551 ], [ -73.5961923, 4.146529 ], [ -73.5960018, 4.1465066 ], [ -73.5958682, 4.1464877 ], [ -73.5957816, 4.1464764 ], [ -73.5956828, 4.1464636 ], [ -73.5955293, 4.1464424 ], [ -73.5953801, 4.146424 ], [ -73.5952458, 4.1464056 ], [ -73.59509, 4.1463854 ], [ -73.5949487, 4.1463675 ], [ -73.5948265, 4.1463526 ], [ -73.5946306, 4.1463248 ], [ -73.5944879, 4.1463066 ], [ -73.5943699, 4.1462913 ], [ -73.5942134, 4.1462711 ], [ -73.5940448, 4.1462502 ], [ -73.5938778, 4.1462269 ], [ -73.5937239, 4.1462062 ], [ -73.5935713, 4.1461843 ], [ -73.5934495, 4.1461676 ], [ -73.5932798, 4.146148 ], [ -73.5930985, 4.1461243 ], [ -73.5929452, 4.1461031 ], [ -73.5928025, 4.146086 ], [ -73.5926608, 4.1460696 ], [ -73.5925561, 4.1460559 ], [ -73.592437, 4.1460411 ], [ -73.5923436, 4.1460306 ], [ -73.592323, 4.1460322 ], [ -73.5921853, 4.1463883 ], [ -73.5920323, 4.1466179 ], [ -73.5919539, 4.1467264 ], [ -73.5918818, 4.1468349 ], [ -73.5918637, 4.1468728 ], [ -73.5918383, 4.1469319 ], [ -73.5916999, 4.1470145 ], [ -73.5915043, 4.1472153 ], [ -73.5913655, 4.1473881 ], [ -73.5912826, 4.1474967 ], [ -73.5912248, 4.1475722 ], [ -73.5911882, 4.1476348 ], [ -73.5910994, 4.1477941 ], [ -73.591089, 4.147811 ], [ -73.5910476, 4.1478776 ], [ -73.5910324, 4.1478935 ], [ -73.5910073, 4.1479873 ], [ -73.5909938, 4.148037 ], [ -73.5909723, 4.1480943 ], [ -73.5909604, 4.1481242 ], [ -73.5909485, 4.148154 ], [ -73.590922, 4.1482305 ], [ -73.5909085, 4.1482628 ], [ -73.5908697, 4.1483672 ], [ -73.5908658, 4.148378 ], [ -73.5908541, 4.1484103 ], [ -73.5908502, 4.1484211 ], [ -73.5908497, 4.1484271 ], [ -73.5908194, 4.1484927 ], [ -73.5907883, 4.1484955 ], [ -73.5907422, 4.1485021 ], [ -73.5907237, 4.1485073 ], [ -73.5906864, 4.1485179 ], [ -73.5906346, 4.1485329 ], [ -73.5906126, 4.1485405 ], [ -73.59055, 4.1485786 ], [ -73.5905474, 4.14858 ], [ -73.5904703, 4.1486183 ], [ -73.5904603, 4.148627 ], [ -73.5904584, 4.1486287 ], [ -73.5904503, 4.1486358 ], [ -73.5904359, 4.148685 ], [ -73.5907875, 4.1486961 ], [ -73.5910516, 4.1487294 ], [ -73.5913052, 4.148765 ], [ -73.591427, 4.148789 ], [ -73.5914727, 4.1487947 ], [ -73.5914927, 4.1487948 ], [ -73.5915485, 4.1487934 ], [ -73.5916085, 4.1487948 ], [ -73.5917287, 4.1488164 ], [ -73.5917916, 4.148838 ], [ -73.5918373, 4.148861 ], [ -73.5918659, 4.1488696 ], [ -73.5919002, 4.1488768 ], [ -73.592606, 4.1490056 ], [ -73.5927875, 4.1490387 ], [ -73.5936858, 4.1492027 ], [ -73.5943102, 4.1493166 ], [ -73.5948794, 4.1494204 ], [ -73.5949552, 4.1494343 ], [ -73.5949924, 4.14944 ], [ -73.5950123, 4.1494386 ], [ -73.5950567, 4.1494329 ], [ -73.5950996, 4.1494358 ], [ -73.5951554, 4.1494459 ], [ -73.5952383, 4.149456 ], [ -73.5953012, 4.1494733 ], [ -73.5953496, 4.1494961 ], [ -73.5953941, 4.1495009 ], [ -73.5956352, 4.1495122 ], [ -73.5962201, 4.149511 ], [ -73.5965943, 4.1495129 ] ] ], [ [ [ -73.5903667, 4.1486776 ], [ -73.5903667, 4.1486786 ], [ -73.590367, 4.1486775 ], [ -73.5903667, 4.1486776 ] ] ] ] } },
{ "type": "Feature", "properties": { "OBJECTID": 14, "SHAPE_Leng": 1117.1834432799999, "SHAPE_Area": 56472.102611599999, "NOMBRE_PP": "PP ESMERALDA" }, "geometry": { "type": "Polygon", "coordinates": [ [ [ -73.5854573, 4.1493729 ], [ -73.5854584, 4.1493736 ], [ -73.5855268, 4.1493698 ], [ -73.5855751, 4.1493656 ], [ -73.5856378, 4.1493603 ], [ -73.5857289, 4.1493442 ], [ -73.5857346, 4.1493432 ], [ -73.5859606, 4.1493697 ], [ -73.5859738, 4.1493712 ], [ -73.585987, 4.1493527 ], [ -73.5860836, 4.149218 ], [ -73.5862194, 4.1489913 ], [ -73.5859803, 4.148833 ], [ -73.5857436, 4.1486925 ], [ -73.5857255, 4.1486546 ], [ -73.5857716, 4.1483687 ], [ -73.5858156, 4.1480881 ], [ -73.5858158, 4.1480873 ], [ -73.5858977, 4.1475706 ], [ -73.5859183, 4.1474347 ], [ -73.5860494, 4.1465713 ], [ -73.5860761, 4.1463957 ], [ -73.5860922, 4.1463145 ], [ -73.5861032, 4.1462895 ], [ -73.5861033, 4.1462893 ], [ -73.5861034, 4.146289 ], [ -73.5859612, 4.1462673 ], [ -73.5859591, 4.1462676 ], [ -73.5857641, 4.1463608 ], [ -73.5857014, 4.1463926 ], [ -73.585639, 4.1464348 ], [ -73.5854984, 4.1464999 ], [ -73.5854259, 4.1465181 ], [ -73.5852913, 4.1465827 ], [ -73.5852102, 4.1466545 ], [ -73.5852226, 4.1467622 ], [ -73.5852188, 4.1467676 ], [ -73.5851886, 4.1468101 ], [ -73.5851677, 4.1468396 ], [ -73.5851596, 4.1468504 ], [ -73.5851497, 4.1468636 ], [ -73.5851243, 4.1468974 ], [ -73.585095, 4.1469365 ], [ -73.5850891, 4.1469444 ], [ -73.585062, 4.1469805 ], [ -73.5849522, 4.1470733 ], [ -73.5849252, 4.147074 ], [ -73.5849154, 4.1470715 ], [ -73.5848918, 4.1470757 ], [ -73.5847428, 4.1470304 ], [ -73.584717, 4.1470226 ], [ -73.5846046, 4.1469449 ], [ -73.5845782, 4.1469392 ], [ -73.5844886, 4.1469573 ], [ -73.5843004, 4.1469776 ], [ -73.5842991, 4.1469778 ], [ -73.5841181, 4.1469751 ], [ -73.5837668, 4.1485103 ], [ -73.58372, 4.148759 ], [ -73.5839373, 4.1487178 ], [ -73.5839456, 4.1487162 ], [ -73.5846285, 4.1488997 ], [ -73.5846669, 4.1489166 ], [ -73.5847054, 4.1489335 ], [ -73.5847439, 4.1489505 ], [ -73.5847824, 4.1489674 ], [ -73.5848294, 4.1489881 ], [ -73.5848877, 4.1490167 ], [ -73.5849222, 4.1490336 ], [ -73.5850228, 4.1490919 ], [ -73.5851235, 4.1491503 ], [ -73.5851598, 4.1491734 ], [ -73.5851984, 4.1491979 ], [ -73.5854573, 4.1493729 ] ] ] } },
{ "type": "Feature", "properties": { "OBJECTID": 15, "SHAPE_Leng": 730.95091657, "SHAPE_Area": 24872.311312500002, "NOMBRE_PP": "PP LA FONTANA" }, "geometry": { "type": "Polygon", "coordinates": [ [ [ -73.6575605, 4.1397925 ], [ -73.6578334, 4.1398423 ], [ -73.6582992, 4.1399402 ], [ -73.6582993, 4.1399402 ], [ -73.6582751, 4.1381079 ], [ -73.6581159, 4.1380803 ], [ -73.658078, 4.1380783 ], [ -73.6580164, 4.1380692 ], [ -73.657914, 4.1380619 ], [ -73.6577145, 4.138058 ], [ -73.6576263, 4.138059 ], [ -73.6576097, 4.138058 ], [ -73.6576004, 4.1380587 ], [ -73.6575964, 4.1380596 ], [ -73.6575911, 4.138062 ], [ -73.6575845, 4.1380666 ], [ -73.6575798, 4.1380706 ], [ -73.6575751, 4.1380757 ], [ -73.6575684, 4.1380854 ], [ -73.6575514, 4.1381179 ], [ -73.6575278, 4.1381536 ], [ -73.6574681, 4.1382298 ], [ -73.657408, 4.1382945 ], [ -73.6573523, 4.1383362 ], [ -73.6572893, 4.138365 ], [ -73.6572207, 4.1383765 ], [ -73.6571649, 4.138378 ], [ -73.6571277, 4.1383716 ], [ -73.6570444, 4.1383612 ], [ -73.6569633, 4.1383469 ], [ -73.6569218, 4.1383283 ], [ -73.6568846, 4.1383116 ], [ -73.6568085, 4.1382534 ], [ -73.6567769, 4.1382174 ], [ -73.6567618, 4.1381954 ], [ -73.6567426, 4.1381594 ], [ -73.6567356, 4.1381438 ], [ -73.6567246, 4.138113 ], [ -73.6567116, 4.1380432 ], [ -73.6565848, 4.1380416 ], [ -73.6567445, 4.1383453 ], [ -73.6568702, 4.1386717 ], [ -73.6570792, 4.1391027 ], [ -73.6573041, 4.1394591 ], [ -73.6575605, 4.1397925 ] ] ] } },
{ "type": "Feature", "properties": { "OBJECTID": 16, "SHAPE_Leng": 1876.3110756399999, "SHAPE_Area": 110645.516206, "NOMBRE_PP": null }, "geometry": { "type": "Polygon", "coordinates": [ [ [ -73.658345, 4.1400212 ], [ -73.6584099, 4.1400357 ], [ -73.6585327, 4.1400549 ], [ -73.658643, 4.1400751 ], [ -73.6587784, 4.1400928 ], [ -73.6588985, 4.1401063 ], [ -73.6590649, 4.1401282 ], [ -73.6592655, 4.1401507 ], [ -73.6593164, 4.1401799 ], [ -73.6593704, 4.1402176 ], [ -73.6594117, 4.1402548 ], [ -73.6594676, 4.1403121 ], [ -73.6595872, 4.1404309 ], [ -73.65961, 4.1404531 ], [ -73.6597497, 4.1405892 ], [ -73.6598963, 4.1407283 ], [ -73.6599655, 4.1407943 ], [ -73.6600399, 4.1408512 ], [ -73.6601024, 4.1408831 ], [ -73.6601856, 4.1409175 ], [ -73.6602414, 4.1409397 ], [ -73.6603269, 4.1409646 ], [ -73.6603838, 4.1409701 ], [ -73.660482, 4.140968 ], [ -73.6605308, 4.1409609 ], [ -73.6606272, 4.1409365 ], [ -73.6607103, 4.1409122 ], [ -73.6608624, 4.1408591 ], [ -73.6609896, 4.1408036 ], [ -73.6610425, 4.1407663 ], [ -73.6612266, 4.1406684 ], [ -73.6613372, 4.1406049 ], [ -73.6614925, 4.1405081 ], [ -73.6615598, 4.1404587 ], [ -73.6616512, 4.1403941 ], [ -73.6617245, 4.1403388 ], [ -73.6617754, 4.1403024 ], [ -73.6618089, 4.1402813 ], [ -73.6618337, 4.1402621 ], [ -73.6619453, 4.1401921 ], [ -73.6621521, 4.1400876 ], [ -73.6622056, 4.1400639 ], [ -73.6623562, 4.140006 ], [ -73.6623961, 4.1399934 ], [ -73.6624944, 4.1399764 ], [ -73.66266, 4.1399466 ], [ -73.6627128, 4.1399332 ], [ -73.6628372, 4.1399061 ], [ -73.6629677, 4.1398697 ], [ -73.6630624, 4.1398345 ], [ -73.6632165, 4.1397804 ], [ -73.6633315, 4.1397557 ], [ -73.6634581, 4.1397369 ], [ -73.6636265, 4.1397144 ], [ -73.6637691, 4.1396924 ], [ -73.6639431, 4.1396627 ], [ -73.6640694, 4.1396438 ], [ -73.6642129, 4.1396565 ], [ -73.6643401, 4.1396774 ], [ -73.6644395, 4.1396954 ], [ -73.6645321, 4.139717 ], [ -73.664746, 4.1397775 ], [ -73.6648261, 4.1397982 ], [ -73.6649305, 4.1398095 ], [ -73.6650305, 4.139811 ], [ -73.6651054, 4.1398098 ], [ -73.6651754, 4.139795 ], [ -73.6651801, 4.139774 ], [ -73.6651878, 4.1397485 ], [ -73.6651886, 4.1397323 ], [ -73.6651963, 4.139683 ], [ -73.6651977, 4.1396741 ], [ -73.6651978, 4.13967 ], [ -73.6651989, 4.1396381 ], [ -73.6652003, 4.1395949 ], [ -73.665199, 4.1395551 ], [ -73.6651905, 4.1395084 ], [ -73.6651824, 4.1394131 ], [ -73.6651944, 4.1393578 ], [ -73.665205, 4.1393117 ], [ -73.6651563, 4.1393048 ], [ -73.6650763, 4.1392934 ], [ -73.6648961, 4.1392139 ], [ -73.6647634, 4.1392946 ], [ -73.6647598, 4.1392955 ], [ -73.6647327, 4.1393026 ], [ -73.664732, 4.1393028 ], [ -73.664731, 4.139303 ], [ -73.6646271, 4.1392797 ], [ -73.6645178, 4.1392133 ], [ -73.6643868, 4.1391583 ], [ -73.6642551, 4.1391844 ], [ -73.66412, 4.1391883 ], [ -73.6639731, 4.1391471 ], [ -73.6638057, 4.1391156 ], [ -73.6637089, 4.139072 ], [ -73.663516, 4.1389691 ], [ -73.663467, 4.1389429 ], [ -73.6633252, 4.1388954 ], [ -73.6632957, 4.1388823 ], [ -73.6631889, 4.1388349 ], [ -73.6629266, 4.1388376 ], [ -73.6626, 4.1388419 ], [ -73.662282, 4.1389905 ], [ -73.6619872, 4.1390667 ], [ -73.6617964, 4.1391275 ], [ -73.6616539, 4.139149 ], [ -73.6616534, 4.139149 ], [ -73.6616411, 4.1391509 ], [ -73.6616163, 4.1391412 ], [ -73.6615142, 4.1391014 ], [ -73.6613221, 4.1390918 ], [ -73.6612165, 4.1390518 ], [ -73.6611385, 4.1390177 ], [ -73.6610076, 4.1389423 ], [ -73.660842, 4.138818 ], [ -73.6605727, 4.1387636 ], [ -73.6602803, 4.1385993 ], [ -73.6598693, 4.1386039 ], [ -73.6594809, 4.138595 ], [ -73.6594381, 4.1385806 ], [ -73.659297, 4.1385451 ], [ -73.6591854, 4.138458 ], [ -73.6586256, 4.138293 ], [ -73.6585323, 4.1382934 ], [ -73.6584657, 4.138291 ], [ -73.6584535, 4.1382918 ], [ -73.6583441, 4.1382985 ], [ -73.6583442, 4.1384257 ], [ -73.658345, 4.1400212 ] ] ] } }
]
}
